[{"OBJECT_NAME":"SKY MEXICO-1","OBJECT_ID":"2015-026B","EPOCH":"2026-04-26T23:52:38.578080","MEAN_MOTION":1.0026863,"ECCENTRICITY":0.0002199,"INCLINATION":0.0213,"RA_OF_ASC_NODE":104.3535,"ARG_OF_PERICENTER":294.7306,"MEAN_ANOMALY":95.253,"EPHEMERIS_TYPE":0,"CLASSIFICATION_TYPE":"U","NORAD_CAT_ID":40664,"ELEMENT_SET_NO":999,"REV_AT_EPOCH":3994,"BSTAR":0,"MEAN_MOTION_DOT":0,"MEAN_MOTION_DDOT":0},{"OBJECT_NAME":"METEOSAT-11 (MSG-4)","OBJECT_ID":"2015-034A","EPOCH":"2026-04-27T02:45:38.840832","MEAN_MOTION":1.00264233,"ECCENTRICITY":0.0001589,"INCLINATION":3.074,"RA_OF_ASC_NODE":71.3738,"ARG_OF_PERICENTER":344.8606,"MEAN_ANOMALY":209.852,"EPHEMERIS_TYPE":0,"CLASSIFICATION_TYPE":"U","NORAD_CAT_ID":40732,"ELEMENT_SET_NO":999,"REV_AT_EPOCH":670,"BSTAR":0,"MEAN_MOTION_DOT":5.5e-7,"MEAN_MOTION_DDOT":0},{"OBJECT_NAME":"STAR ONE C4","OBJECT_ID":"2015-034B","EPOCH":"2026-04-26T08:02:38.464224","MEAN_MOTION":1.0026825,"ECCENTRICITY":0.00026492,"INCLINATION":0.0174,"RA_OF_ASC_NODE":23.812,"ARG_OF_PERICENTER":2.7842,"MEAN_ANOMALY":238.4124,"EPHEMERIS_TYPE":0,"CLASSIFICATION_TYPE":"U","NORAD_CAT_ID":40733,"ELEMENT_SET_NO":999,"REV_AT_EPOCH":3949,"BSTAR":0,"MEAN_MOTION_DOT":0,"MEAN_MOTION_DDOT":0},{"OBJECT_NAME":"WGS F7 (USA 263)","OBJECT_ID":"2015-036A","EPOCH":"2026-04-27T02:34:38.741376","MEAN_MOTION":1.00269067,"ECCENTRICITY":3.96e-5,"INCLINATION":0.0145,"RA_OF_ASC_NODE":266.4437,"ARG_OF_PERICENTER":184.8737,"MEAN_ANOMALY":337.4431,"EPHEMERIS_TYPE":0,"CLASSIFICATION_TYPE":"U","NORAD_CAT_ID":40746,"ELEMENT_SET_NO":999,"REV_AT_EPOCH":3935,"BSTAR":0,"MEAN_MOTION_DOT":7.0e-8,"MEAN_MOTION_DDOT":0},{"OBJECT_NAME":"INTELSAT 34 (IS-34)","OBJECT_ID":"2015-039A","EPOCH":"2026-04-27T01:16:57.337824","MEAN_MOTION":1.00272031,"ECCENTRICITY":3.92e-5,"INCLINATION":0.0159,"RA_OF_ASC_NODE":282.6958,"ARG_OF_PERICENTER":53.1503,"MEAN_ANOMALY":202.9473,"EPHEMERIS_TYPE":0,"CLASSIFICATION_TYPE":"U","NORAD_CAT_ID":40874,"ELEMENT_SET_NO":999,"REV_AT_EPOCH":3912,"BSTAR":0,"MEAN_MOTION_DOT":-2.96e-6,"MEAN_MOTION_DDOT":0},{"OBJECT_NAME":"EUTELSAT 8 WEST B","OBJECT_ID":"2015-039B","EPOCH":"2026-04-27T05:28:38.742816","MEAN_MOTION":1.00271826,"ECCENTRICITY":0.0003889,"INCLINATION":0.0692,"RA_OF_ASC_NODE":358.8325,"ARG_OF_PERICENTER":38.6524,"MEAN_ANOMALY":251.8993,"EPHEMERIS_TYPE":0,"CLASSIFICATION_TYPE":"U","NORAD_CAT_ID":40875,"ELEMENT_SET_NO":999,"REV_AT_EPOCH":3914,"BSTAR":0,"MEAN_MOTION_DOT":-7.6e-7,"MEAN_MOTION_DDOT":0},{"OBJECT_NAME":"GSAT-6","OBJECT_ID":"2015-041A","EPOCH":"2026-04-27T00:13:40.908000","MEAN_MOTION":1.00272738,"ECCENTRICITY":0.0003108,"INCLINATION":1.7875,"RA_OF_ASC_NODE":83.2008,"ARG_OF_PERICENTER":315.8438,"MEAN_ANOMALY":261.9341,"EPHEMERIS_TYPE":0,"CLASSIFICATION_TYPE":"U","NORAD_CAT_ID":40880,"ELEMENT_SET_NO":999,"REV_AT_EPOCH":3908,"BSTAR":0,"MEAN_MOTION_DOT":-1.7e-6,"MEAN_MOTION_DDOT":0},{"OBJECT_NAME":"INMARSAT 5-F3","OBJECT_ID":"2015-042A","EPOCH":"2026-04-27T02:26:38.562144","MEAN_MOTION":1.00268398,"ECCENTRICITY":0.000117,"INCLINATION":0.0132,"RA_OF_ASC_NODE":231.4503,"ARG_OF_PERICENTER":153.7494,"MEAN_ANOMALY":46.1404,"EPHEMERIS_TYPE":0,"CLASSIFICATION_TYPE":"U","NORAD_CAT_ID":40882,"ELEMENT_SET_NO":999,"REV_AT_EPOCH":3905,"BSTAR":0,"MEAN_MOTION_DOT":0,"MEAN_MOTION_DDOT":0},{"OBJECT_NAME":"TJS-1","OBJECT_ID":"2015-046A","EPOCH":"2026-04-26T22:51:33.784704","MEAN_MOTION":1.00269537,"ECCENTRICITY":0.0005631,"INCLINATION":0.1918,"RA_OF_ASC_NODE":83.9872,"ARG_OF_PERICENTER":329.695,"MEAN_ANOMALY":299.1115,"EPHEMERIS_TYPE":0,"CLASSIFICATION_TYPE":"U","NORAD_CAT_ID":40892,"ELEMENT_SET_NO":999,"REV_AT_EPOCH":3905,"BSTAR":0,"MEAN_MOTION_DOT":-1.68e-6,"MEAN_MOTION_DDOT":0},{"OBJECT_NAME":"EXPRESS-AM8","OBJECT_ID":"2015-048A","EPOCH":"2026-04-27T01:28:48.701856","MEAN_MOTION":1.00275075,"ECCENTRICITY":6.46e-5,"INCLINATION":0.0137,"RA_OF_ASC_NODE":258.1724,"ARG_OF_PERICENTER":38.6429,"MEAN_ANOMALY":286.4418,"EPHEMERIS_TYPE":0,"CLASSIFICATION_TYPE":"U","NORAD_CAT_ID":40895,"ELEMENT_SET_NO":999,"REV_AT_EPOCH":3883,"BSTAR":0,"MEAN_MOTION_DOT":-1.21e-6,"MEAN_MOTION_DDOT":0},{"OBJECT_NAME":"SKY MUSTER 1 (NBN1A)","OBJECT_ID":"2015-054A","EPOCH":"2026-04-26T22:47:26.678976","MEAN_MOTION":1.002718,"ECCENTRICITY":0.0001783,"INCLINATION":0.0142,"RA_OF_ASC_NODE":265.8801,"ARG_OF_PERICENTER":124.9771,"MEAN_ANOMALY":306.2061,"EPHEMERIS_TYPE":0,"CLASSIFICATION_TYPE":"U","NORAD_CAT_ID":40940,"ELEMENT_SET_NO":999,"REV_AT_EPOCH":3874,"BSTAR":0,"MEAN_MOTION_DOT":-2.89e-6,"MEAN_MOTION_DDOT":0},{"OBJECT_NAME":"ARSAT 2","OBJECT_ID":"2015-054B","EPOCH":"2026-04-27T03:14:38.596416","MEAN_MOTION":1.00269533,"ECCENTRICITY":0.000227,"INCLINATION":0.014,"RA_OF_ASC_NODE":74.3559,"ARG_OF_PERICENTER":315.0808,"MEAN_ANOMALY":153.3495,"EPHEMERIS_TYPE":0,"CLASSIFICATION_TYPE":"U","NORAD_CAT_ID":40941,"ELEMENT_SET_NO":999,"REV_AT_EPOCH":3879,"BSTAR":0,"MEAN_MOTION_DOT":0,"MEAN_MOTION_DDOT":0},{"OBJECT_NAME":"MORELOS 3","OBJECT_ID":"2015-056A","EPOCH":"2026-04-27T03:38:38.455008","MEAN_MOTION":1.00272339,"ECCENTRICITY":0.0003138,"INCLINATION":3.1483,"RA_OF_ASC_NODE":13.6615,"ARG_OF_PERICENTER":0.2063,"MEAN_ANOMALY":142.8427,"EPHEMERIS_TYPE":0,"CLASSIFICATION_TYPE":"U","NORAD_CAT_ID":40946,"ELEMENT_SET_NO":999,"REV_AT_EPOCH":3877,"BSTAR":0,"MEAN_MOTION_DOT":-5.3e-7,"MEAN_MOTION_DDOT":0},{"OBJECT_NAME":"APSTAR-9","OBJECT_ID":"2015-059A","EPOCH":"2026-04-26T22:47:56.632128","MEAN_MOTION":1.00270492,"ECCENTRICITY":8.83e-5,"INCLINATION":0.0582,"RA_OF_ASC_NODE":61.889,"ARG_OF_PERICENTER":152.4215,"MEAN_ANOMALY":124.6244,"EPHEMERIS_TYPE":0,"CLASSIFICATION_TYPE":"U","NORAD_CAT_ID":40982,"ELEMENT_SET_NO":999,"REV_AT_EPOCH":3860,"BSTAR":0,"MEAN_MOTION_DOT":-2.77e-6,"MEAN_MOTION_DDOT":0},{"OBJECT_NAME":"TURKSAT 4B","OBJECT_ID":"2015-060A","EPOCH":"2026-04-27T01:47:01.953888","MEAN_MOTION":1.00269318,"ECCENTRICITY":0.0002276,"INCLINATION":0.0441,"RA_OF_ASC_NODE":70.923,"ARG_OF_PERICENTER":311.1795,"MEAN_ANOMALY":269.7177,"EPHEMERIS_TYPE":0,"CLASSIFICATION_TYPE":"U","NORAD_CAT_ID":40984,"ELEMENT_SET_NO":999,"REV_AT_EPOCH":3858,"BSTAR":0,"MEAN_MOTION_DOT":1.05e-6,"MEAN_MOTION_DDOT":0}]
