SKY MEXICO-1            
1 40664U 15026B   26116.99489095  .00000000  00000+0  00000+0 0  9991
2 40664   0.0213 104.3535 0002199 294.7306  95.2530  1.00268630 39946
METEOSAT-11 (MSG-4)     
1 40732U 15034A   26117.11503288  .00000055  00000+0  00000+0 0  9992
2 40732   3.0740  71.3738 0001589 344.8606 209.8520  1.00264233  6705
STAR ONE C4             
1 40733U 15034B   26116.33516741  .00000000  00000+0  00000+0 0  9994
2 40733   0.0174  23.8120 0002649   2.7842 238.4124  1.00268250 39494
WGS F7 (USA 263)        
1 40746U 15036A   26117.10739284  .00000007  00000+0  00000+0 0  9992
2 40746   0.0145 266.4437 0000396 184.8737 337.4431  1.00269067 39357
INTELSAT 34 (IS-34)     
1 40874U 15039A   26117.05344141 -.00000296  00000+0  00000+0 0  9996
2 40874   0.0159 282.6958 0000392  53.1503 202.9473  1.00272031 39129
EUTELSAT 8 WEST B       
1 40875U 15039B   26117.22822619 -.00000076  00000+0  00000+0 0  9993
2 40875   0.0692 358.8325 0003889  38.6524 251.8993  1.00271826 39144
GSAT-6                  
1 40880U 15041A   26117.00950125 -.00000170  00000+0  00000+0 0  9997
2 40880   1.7875  83.2008 0003108 315.8438 261.9341  1.00272738 39081
INMARSAT 5-F3           
1 40882U 15042A   26117.10183521  .00000000  00000+0  00000+0 0  9990
2 40882   0.0132 231.4503 0001170 153.7494  46.1404  1.00268398 39053
TJS-1                   
1 40892U 15046A   26116.95247436 -.00000168  00000+0  00000+0 0  9999
2 40892   0.1918  83.9872 0005631 329.6950 299.1115  1.00269537 39058
EXPRESS-AM8             
1 40895U 15048A   26117.06167479 -.00000121  00000+0  00000+0 0  9994
2 40895   0.0137 258.1724 0000646  38.6429 286.4418  1.00275075 38838
SKY MUSTER 1 (NBN1A)    
1 40940U 15054A   26116.94961434 -.00000289  00000+0  00000+0 0  9996
2 40940   0.0142 265.8801 0001783 124.9771 306.2061  1.00271800 38745
ARSAT 2                 
1 40941U 15054B   26117.13516894  .00000000  00000+0  00000+0 0  9995
2 40941   0.0140  74.3559 0002270 315.0808 153.3495  1.00269533 38790
MORELOS 3               
1 40946U 15056A   26117.15183397 -.00000053  00000+0  00000+0 0  9991
2 40946   3.1483  13.6615 0003138   0.2063 142.8427  1.00272339 38772
APSTAR-9                
1 40982U 15059A   26116.94996102 -.00000277  00000+0  00000+0 0  9994
2 40982   0.0582  61.8890 0000883 152.4215 124.6244  1.00270492 38606
TURKSAT 4B              
1 40984U 15060A   26117.07432817  .00000105  00000+0  00000+0 0  9990
2 40984   0.0441  70.9230 0002276 311.1795 269.7177  1.00269318 38584
